[{"OBJECT_NAME":"STARLINK-32088","OBJECT_ID":"2024-086M","EPOCH":"2026-03-08T23:56:55.831488","MEAN_MOTION":15.27571863,"ECCENTRICITY":0.00019378,"INCLINATION":43.004,"RA_OF_ASC_NODE":56.2538,"ARG_OF_PERICENTER":282.4203,"MEAN_ANOMALY":77.6432,"EPHEMERIS_TYPE":0,"CLASSIFICATION_TYPE":"U","NORAD_CAT_ID":59693,"ELEMENT_SET_NO":999,"REV_AT_EPOCH":10409,"BSTAR":-1.227843e-5,"MEAN_MOTION_DOT":-6.0e-6,"MEAN_MOTION_DDOT":0},{"OBJECT_NAME":"SL-3 R\/B","OBJECT_ID":"1982-079B","EPOCH":"2026-03-09T22:18:18.158976","MEAN_MOTION":15.24805533,"ECCENTRICITY":0.00250364,"INCLINATION":81.1481,"RA_OF_ASC_NODE":192.7939,"ARG_OF_PERICENTER":164.0597,"MEAN_ANOMALY":196.143,"EPHEMERIS_TYPE":0,"CLASSIFICATION_TYPE":"U","NORAD_CAT_ID":13403,"ELEMENT_SET_NO":999,"REV_AT_EPOCH":37773,"BSTAR":0.00032485557,"MEAN_MOTION_DOT":8.157e-5,"MEAN_MOTION_DDOT":0}]
